{
  "norad_id": 59210,
  "name": "STARLINK-31520",
  "history": [
    {
      "epoch": "2026-03-28T15:59:49.731648Z",
      "apogee_km": 476.18590448758005,
      "perigee_km": 474.26435881310863,
      "latitude_deg": -2.7754891052049293e-05,
      "longitude_deg": 1.2427487760521871,
      "height_km": 476.10745511818845,
      "semi_major_axis_km": 6853.362131650344,
      "eccentricity": 0.00014019,
      "inclination_deg": 53.1604,
      "raan_deg": 67.2837,
      "arg_perigee_deg": 89.0687,
      "mean_anomaly_deg": 271.0474,
      "mean_motion_rev_day": 15.3019663
    },
    {
      "epoch": "2026-03-29T04:32:15.627264Z",
      "apogee_km": 476.2531482474142,
      "perigee_km": 474.2272899414502,
      "latitude_deg": 3.347150222988848e-05,
      "longitude_deg": 170.1922748320194,
      "height_km": 476.2746189915743,
      "semi_major_axis_km": 6853.377219094432,
      "eccentricity": 0.0001478,
      "inclination_deg": 53.1608,
      "raan_deg": 64.8561,
      "arg_perigee_deg": 97.7457,
      "mean_anomaly_deg": 262.3712,
      "mean_motion_rev_day": 15.30191577
    },
    {
      "epoch": "2026-03-30T02:29:00.193344Z",
      "apogee_km": 476.25410660062244,
      "perigee_km": 474.20632047721756,
      "latitude_deg": 4.2722197122318606e-05,
      "longitude_deg": -164.14118814482794,
      "height_km": 476.2638487098182,
      "semi_major_axis_km": 6853.36721353892,
      "eccentricity": 0.0001494,
      "inclination_deg": 53.1619,
      "raan_deg": 60.6096,
      "arg_perigee_deg": 97.6137,
      "mean_anomaly_deg": 262.5034,
      "mean_motion_rev_day": 15.30194928
    },
    {
      "epoch": "2026-03-30T05:37:06.803328Z",
      "apogee_km": 476.2491780848068,
      "perigee_km": 474.23291426362266,
      "latitude_deg": -3.3191520601616146e-05,
      "longitude_deg": 148.0962570176062,
      "height_km": 476.2444894441548,
      "semi_major_axis_km": 6853.378046174214,
      "eccentricity": 0.0001471,
      "inclination_deg": 53.1621,
      "raan_deg": 60.0034,
      "arg_perigee_deg": 96.0018,
      "mean_anomaly_deg": 264.115,
      "mean_motion_rev_day": 15.301913
    },
    {
      "epoch": "2026-03-30T21:17:38.871744Z",
      "apogee_km": 476.2201075394041,
      "perigee_km": 474.2807359667959,
      "latitude_deg": -4.023320210708025e-05,
      "longitude_deg": -90.7153388454064,
      "height_km": 476.2761098684504,
      "semi_major_axis_km": 6853.387421753099,
      "eccentricity": 0.00014149,
      "inclination_deg": 53.1619,
      "raan_deg": 56.9692,
      "arg_perigee_deg": 97.561,
      "mean_anomaly_deg": 262.5551,
      "mean_motion_rev_day": 15.3018816
    },
    {
      "epoch": "2026-03-31T06:41:58.050240Z",
      "apogee_km": 476.1891729934596,
      "perigee_km": 474.29901048835836,
      "latitude_deg": 3.141388678647412e-05,
      "longitude_deg": 125.99844158342276,
      "height_km": 476.2579660516773,
      "semi_major_axis_km": 6853.381091740909,
      "eccentricity": 0.0001379,
      "inclination_deg": 53.1623,
      "raan_deg": 55.1491,
      "arg_perigee_deg": 97.0319,
      "mean_anomaly_deg": 263.0839,
      "mean_motion_rev_day": 15.3019028
    },
    {
      "epoch": "2026-04-01T14:03:02.058336Z",
      "apogee_km": 476.1313403354252,
      "perigee_km": 474.3659081986143,
      "latitude_deg": 2.237264041817056e-05,
      "longitude_deg": 8.37659170718587,
      "height_km": 476.27837523217426,
      "semi_major_axis_km": 6853.38562426702,
      "eccentricity": 0.0001288,
      "inclination_deg": 53.1619,
      "raan_deg": 49.0815,
      "arg_perigee_deg": 98.5665,
      "mean_anomaly_deg": 261.5482,
      "mean_motion_rev_day": 15.30188762
    },
    {
      "epoch": "2026-04-02T13:33:49.243392Z",
      "apogee_km": 476.10648313286765,
      "perigee_km": 474.3192665525057,
      "latitude_deg": 2.118222846316679e-05,
      "longitude_deg": 10.164538336142986,
      "height_km": 476.2355524682712,
      "semi_major_axis_km": 6853.349874842686,
      "eccentricity": 0.00013039,
      "inclination_deg": 53.1618,
      "raan_deg": 44.5317,
      "arg_perigee_deg": 98.005,
      "mean_anomaly_deg": 262.1099,
      "mean_motion_rev_day": 15.30200735
    },
    {
      "epoch": "2026-04-03T13:04:37.741728Z",
      "apogee_km": 476.1928760419487,
      "perigee_km": 474.3136764282053,
      "latitude_deg": -6.157929121668956e-05,
      "longitude_deg": 11.946236567909333,
      "height_km": 476.17881274738676,
      "semi_major_axis_km": 6853.390276235077,
      "eccentricity": 0.0001371,
      "inclination_deg": 53.1604,
      "raan_deg": 39.9812,
      "arg_perigee_deg": 91.6804,
      "mean_anomaly_deg": 268.4353,
      "mean_motion_rev_day": 15.30187204
    },
    {
      "epoch": "2026-04-04T20:25:40.915200Z",
      "apogee_km": 476.0084116582975,
      "perigee_km": 474.38417166817453,
      "latitude_deg": 3.624982324029573e-05,
      "longitude_deg": -105.6723491432129,
      "height_km": 476.4292565182908,
      "semi_major_axis_km": 6853.333291663236,
      "eccentricity": 0.0001185,
      "inclination_deg": 53.1606,
      "raan_deg": 33.9133,
      "arg_perigee_deg": 114.3292,
      "mean_anomaly_deg": 245.7833,
      "mean_motion_rev_day": 15.30206289
    },
    {
      "epoch": "2026-04-05T05:50:01.561632Z",
      "apogee_km": 476.06472502449014,
      "perigee_km": 474.5007746375786,
      "latitude_deg": -3.509618913881591e-05,
      "longitude_deg": 111.0341905090641,
      "height_km": 476.1681390635636,
      "semi_major_axis_km": 6853.419749831034,
      "eccentricity": 0.0001141,
      "inclination_deg": 53.1598,
      "raan_deg": 32.0922,
      "arg_perigee_deg": 89.0594,
      "mean_anomaly_deg": 271.0537,
      "mean_motion_rev_day": 15.30177333
    },
    {
      "epoch": "2026-04-05T19:56:29.854176Z",
      "apogee_km": 476.00455144296757,
      "perigee_km": 474.45843151129066,
      "latitude_deg": -2.1043557762385776e-06,
      "longitude_deg": -103.89156074620465,
      "height_km": 476.2267342825992,
      "semi_major_axis_km": 6853.368491477129,
      "eccentricity": 0.0001128,
      "inclination_deg": 53.1629,
      "raan_deg": 29.3637,
      "arg_perigee_deg": 97.1824,
      "mean_anomaly_deg": 262.9305,
      "mean_motion_rev_day": 15.301945
    },
    {
      "epoch": "2026-04-06T02:12:42.625728Z",
      "apogee_km": 475.91093833822833,
      "perigee_km": 474.55013368027903,
      "latitude_deg": -9.317902721593536e-07,
      "longitude_deg": 160.5825162437994,
      "height_km": 476.0662117040858,
      "semi_major_axis_km": 6853.367536009254,
      "eccentricity": 9.928e-05,
      "inclination_deg": 53.1625,
      "raan_deg": 28.1485,
      "arg_perigee_deg": 84.6832,
      "mean_anomaly_deg": 275.4282,
      "mean_motion_rev_day": 15.3019482
    },
    {
      "epoch": "2026-04-07T04:51:36.704160Z",
      "apogee_km": 476.08545789329946,
      "perigee_km": 474.40583087481355,
      "latitude_deg": 5.2775134986116396e-05,
      "longitude_deg": 114.60441754988959,
      "height_km": 476.05397454574285,
      "semi_major_axis_km": 6853.382644384056,
      "eccentricity": 0.00012254,
      "inclination_deg": 53.1633,
      "raan_deg": 22.9901,
      "arg_perigee_deg": 83.837,
      "mean_anomaly_deg": 276.2771,
      "mean_motion_rev_day": 15.3018976
    },
    {
      "epoch": "2026-04-08T12:12:40.313952Z",
      "apogee_km": 475.8721364067069,
      "perigee_km": 474.51654746727127,
      "latitude_deg": 2.578280303725458e-05,
      "longitude_deg": -3.0149871974704014,
      "height_km": 476.2587373405655,
      "semi_major_axis_km": 6853.331341936989,
      "eccentricity": 9.89e-05,
      "inclination_deg": 53.1617,
      "raan_deg": 16.9233,
      "arg_perigee_deg": 104.1524,
      "mean_anomaly_deg": 255.9587,
      "mean_motion_rev_day": 15.30206942
    },
    {
      "epoch": "2026-04-09T11:43:28.443360Z",
      "apogee_km": 476.16428948630255,
      "perigee_km": 474.27769709790846,
      "latitude_deg": -3.918951240140714e-05,
      "longitude_deg": -1.2270375019181576,
      "height_km": 475.7068928684085,
      "semi_major_axis_km": 6853.357993292106,
      "eccentricity": 0.00013764,
      "inclination_deg": 53.1622,
      "raan_deg": 12.3775,
      "arg_perigee_deg": 64.0706,
      "mean_anomaly_deg": 296.0436,
      "mean_motion_rev_day": 15.30198016
    },
    {
      "epoch": "2026-04-10T03:24:00.681120Z",
      "apogee_km": 476.1668912484174,
      "perigee_km": 474.34101083124096,
      "latitude_deg": 3.6514127093096555e-05,
      "longitude_deg": 119.96031816693663,
      "height_km": 475.9255028477327,
      "semi_major_axis_km": 6853.390951039829,
      "eccentricity": 0.00013321,
      "inclination_deg": 53.1619,
      "raan_deg": 9.3429,
      "arg_perigee_deg": 75.6224,
      "mean_anomaly_deg": 284.4925,
      "mean_motion_rev_day": 15.30186978
    },
    {
      "epoch": "2026-04-11T10:45:05.164416Z",
      "apogee_km": 476.21611234016746,
      "perigee_km": 474.33964734606707,
      "latitude_deg": -6.760339626555381e-05,
      "longitude_deg": 2.3360075608324684,
      "height_km": 475.9728450171675,
      "semi_major_axis_km": 6853.414879843117,
      "eccentricity": 0.0001369,
      "inclination_deg": 53.1625,
      "raan_deg": 3.2749,
      "arg_perigee_deg": 77.4861,
      "mean_anomaly_deg": 282.6292,
      "mean_motion_rev_day": 15.30178964
    },
    {
      "epoch": "2026-04-13T00:22:21.531072Z",
      "apogee_km": 476.1676917628438,
      "perigee_km": 474.35017116182007,
      "latitude_deg": 4.474461169249392e-07,
      "longitude_deg": 149.19181418154722,
      "height_km": 475.98832318428975,
      "semi_major_axis_km": 6853.395931462332,
      "eccentricity": 0.0001326,
      "inclination_deg": 53.1616,
      "raan_deg": 355.9939,
      "arg_perigee_deg": 79.2948,
      "mean_anomaly_deg": 280.8202,
      "mean_motion_rev_day": 15.3018531
    },
    {
      "epoch": "2026-04-14T20:15:50.939712Z",
      "apogee_km": 476.1422265750789,
      "perigee_km": 474.3425291504527,
      "latitude_deg": -1.1801104040493203e-05,
      "longitude_deg": -159.48058904301212,
      "height_km": 476.13178483319,
      "semi_major_axis_km": 6853.379377862765,
      "eccentricity": 0.0001313,
      "inclination_deg": 53.1585,
      "raan_deg": 347.4966,
      "arg_perigee_deg": 89.4622,
      "mean_anomaly_deg": 270.6529,
      "mean_motion_rev_day": 15.30190854
    },
    {
      "epoch": "2026-04-15T19:46:38.683776Z",
      "apogee_km": 475.9711191930255,
      "perigee_km": 474.49764434594545,
      "latitude_deg": -2.9913630995899164e-05,
      "longitude_deg": -157.6953896187329,
      "height_km": 476.20321503458365,
      "semi_major_axis_km": 6853.371381769485,
      "eccentricity": 0.0001075,
      "inclination_deg": 53.161,
      "raan_deg": 342.9464,
      "arg_perigee_deg": 95.4817,
      "mean_anomaly_deg": 264.6306,
      "mean_motion_rev_day": 15.30193532
    },
    {
      "epoch": "2026-04-16T08:19:04.136160Z",
      "apogee_km": 476.0627140165061,
      "perigee_km": 474.39323430879995,
      "latitude_deg": -1.2474669103533531e-05,
      "longitude_deg": 11.254956712405566,
      "height_km": 476.08739907771195,
      "semi_major_axis_km": 6853.364974162652,
      "eccentricity": 0.0001218,
      "inclination_deg": 53.162,
      "raan_deg": 340.5178,
      "arg_perigee_deg": 87.3263,
      "mean_anomaly_deg": 272.7877,
      "mean_motion_rev_day": 15.30195678
    }
  ]
}